{
    "links": {
        "self": "http://www.neowsapp.com/rest/v1/neo/3555649?api_key=iIulBulltgU6a56xZRHN4H3l9WmuAYTsLGpBGhQ2"
    },
    "id": "3555649",
    "neo_reference_id": "3555649",
    "name": "(2011 BJ10)",
    "designation": "2011 BJ10",
    "nasa_jpl_url": "http://ssd.jpl.nasa.gov/sbdb.cgi?sstr=3555649",
    "absolute_magnitude_h": 24.2,
    "estimated_diameter": {
        "kilometers": {
            "estimated_diameter_min": 0.0384197891,
            "estimated_diameter_max": 0.0859092601
        },
        "meters": {
            "estimated_diameter_min": 38.4197891064,
            "estimated_diameter_max": 85.9092601232
        },
        "miles": {
            "estimated_diameter_min": 0.0238729428,
            "estimated_diameter_max": 0.0533815229
        },
        "feet": {
            "estimated_diameter_min": 126.0491808919,
            "estimated_diameter_max": 281.8545369825
        }
    },
    "is_potentially_hazardous_asteroid": false,
    "close_approach_data": [
        {
            "close_approach_date": "2010-08-17",
            "close_approach_date_full": "2010-Aug-17 10:55",
            "epoch_date_close_approach": 1282042500000,
            "relative_velocity": {
                "kilometers_per_second": "14.9098287999",
                "kilometers_per_hour": "53675.383679694",
                "miles_per_hour": "33351.7960425299"
            },
            "miss_distance": {
                "astronomical": "0.3456764094",
                "lunar": "134.4681232566",
                "kilometers": "51712454.555487978",
                "miles": "32132629.2509629764"
            },
            "orbiting_body": "Earth"
        },
        {
            "close_approach_date": "2011-01-19",
            "close_approach_date_full": "2011-Jan-19 13:27",
            "epoch_date_close_approach": 1295443620000,
            "relative_velocity": {
                "kilometers_per_second": "15.7318779156",
                "kilometers_per_hour": "56634.7604959966",
                "miles_per_hour": "35190.6377093041"
            },
            "miss_distance": {
                "astronomical": "0.1178832818",
                "lunar": "45.8565966202",
                "kilometers": "17635087.865889766",
                "miles": "10957935.4736441308"
            },
            "orbiting_body": "Earth"
        }
    ],
    "orbital_data": {
        "orbit_id": "7",
        "orbit_determination_date": "2019-07-19 05:25:25",
        "first_observation_date": "2011-01-23",
        "last_observation_date": "2011-01-26",
        "data_arc_in_days": 3,
        "observations_used": 27,
        "orbit_uncertainty": "8",
        "minimum_orbit_intersection": ".116677",
        "jupiter_tisserand_invariant": "4.702",
        "epoch_osculation": "2455586.5",
        "eccentricity": ".2733405015138952",
        "semi_major_axis": "1.356451548603059",
        "inclination": "28.17729399261623",
        "ascending_node_longitude": "124.0683107367842",
        "orbital_period": "577.0385866236724",
        "perihelion_distance": ".9856784020285988",
        "perihelion_argument": "297.9540342149262",
        "aphelion_distance": "1.727224695177519",
        "perihelion_time": "2455526.968632256524",
        "mean_anomaly": "37.14013739193531",
        "mean_motion": ".6238750897169749",
        "equinox": "J2000",
        "orbit_class": {
            "orbit_class_type": "APO",
            "orbit_class_description": "Near-Earth asteroid orbits which cross the Earth’s orbit similar to that of 1862 Apollo",
            "orbit_class_range": "a (semi-major axis) > 1.0 AU; q (perihelion) < 1.017 AU"
        }
    },
    "is_sentry_object": false
}